[{"OBJECT_NAME":"APRIZESAT 3","OBJECT_ID":"2009-041F","EPOCH":"2026-03-09T21:53:07.275264","MEAN_MOTION":14.95902996,"ECCENTRICITY":0.00628853,"INCLINATION":98.1904,"RA_OF_ASC_NODE":217.4844,"ARG_OF_PERICENTER":35.8471,"MEAN_ANOMALY":324.6944,"EPHEMERIS_TYPE":0,"CLASSIFICATION_TYPE":"U","NORAD_CAT_ID":35686,"ELEMENT_SET_NO":999,"REV_AT_EPOCH":90153,"BSTAR":0.00014818153,"MEAN_MOTION_DOT":1.656e-5,"MEAN_MOTION_DDOT":0},{"OBJECT_NAME":"STARLINK-4590","OBJECT_ID":"2022-104U","EPOCH":"2026-03-09T16:35:23.694144","MEAN_MOTION":15.08834999,"ECCENTRICITY":0.00012377,"INCLINATION":53.2171,"RA_OF_ASC_NODE":234.2281,"ARG_OF_PERICENTER":91.6865,"MEAN_ANOMALY":268.4269,"EPHEMERIS_TYPE":0,"CLASSIFICATION_TYPE":"U","NORAD_CAT_ID":53606,"ELEMENT_SET_NO":999,"REV_AT_EPOCH":19563,"BSTAR":-5.199602e-6,"MEAN_MOTION_DOT":-3.71e-6,"MEAN_MOTION_DDOT":0}]
